CCSDS_OMM_VERS = 2.0
CREATION_DATE  = 
ORIGINATOR     = 

OBJECT_NAME    = SL-3 R/B
OBJECT_ID      = 1982-079B
CENTER_NAME    = EARTH
REF_FRAME      = TEME
TIME_SYSTEM    = UTC
MEAN_ELEMENT_THEORY = SGP/SGP4

EPOCH          = 2025-12-30T14:36:52.128288
MEAN_MOTION    = 15.23822696
ECCENTRICITY   = .00265436
INCLINATION    = 81.1475
RA_OF_ASC_NODE = 274.5954
ARG_OF_PERICENTER = 41.5827
MEAN_ANOMALY   = 318.7418

EPHEMERIS_TYPE = 0
CLASSIFICATION_TYPE = U
NORAD_CAT_ID   = 13403
ELEMENT_SET_NO = 999
REV_AT_EPOCH   = 36717
BSTAR          = .36639945E-3
MEAN_MOTION_DOT = .8942E-4
MEAN_MOTION_DDOT = 0

CCSDS_OMM_VERS = 2.0
CREATION_DATE  = 
ORIGINATOR     = 

OBJECT_NAME    = SL-14 R/B
OBJECT_ID      = 1982-092B
CENTER_NAME    = EARTH
REF_FRAME      = TEME
TIME_SYSTEM    = UTC
MEAN_ELEMENT_THEORY = SGP/SGP4

EPOCH          = 2025-12-30T15:40:28.553664
MEAN_MOTION    = 14.86574879
ECCENTRICITY   = .00206379
INCLINATION    = 82.5668
RA_OF_ASC_NODE = 205.9584
ARG_OF_PERICENTER = 166.1915
MEAN_ANOMALY   = 257.9015

EPHEMERIS_TYPE = 0
CLASSIFICATION_TYPE = U
NORAD_CAT_ID   = 13553
ELEMENT_SET_NO = 999
REV_AT_EPOCH   = 31867
BSTAR          = .87454932E-4
MEAN_MOTION_DOT = .802E-5
MEAN_MOTION_DDOT = 0

CCSDS_OMM_VERS = 2.0
CREATION_DATE  = 
ORIGINATOR     = 

OBJECT_NAME    = SL-3 R/B
OBJECT_ID      = 1983-010B
CENTER_NAME    = EARTH
REF_FRAME      = TEME
TIME_SYSTEM    = UTC
MEAN_ELEMENT_THEORY = SGP/SGP4

EPOCH          = 2025-12-30T14:20:23.135136
MEAN_MOTION    = 15.43995053
ECCENTRICITY   = .00163158
INCLINATION    = 81.1046
RA_OF_ASC_NODE = 86.8136
ARG_OF_PERICENTER = 287.2784
MEAN_ANOMALY   = 72.6674

EPHEMERIS_TYPE = 0
CLASSIFICATION_TYPE = U
NORAD_CAT_ID   = 13819
ELEMENT_SET_NO = 999
REV_AT_EPOCH   = 34727
BSTAR          = .47241867E-3
MEAN_MOTION_DOT = .21688E-3
MEAN_MOTION_DDOT = 0

CCSDS_OMM_VERS = 2.0
CREATION_DATE  = 
ORIGINATOR     = 

OBJECT_NAME    = SL-3 R/B
OBJECT_ID      = 1983-075B
CENTER_NAME    = EARTH
REF_FRAME      = TEME
TIME_SYSTEM    = UTC
MEAN_ELEMENT_THEORY = SGP/SGP4

EPOCH          = 2025-12-30T13:38:44.397888
MEAN_MOTION    = 15.36533186
ECCENTRICITY   = .00243687
INCLINATION    = 97.6108
RA_OF_ASC_NODE = 1.6557
ARG_OF_PERICENTER = 114.5856
MEAN_ANOMALY   = 245.7931

EPHEMERIS_TYPE = 0
CLASSIFICATION_TYPE = U
NORAD_CAT_ID   = 14208
ELEMENT_SET_NO = 999
REV_AT_EPOCH   = 31953
BSTAR          = .44061087E-3
MEAN_MOTION_DOT = .15793E-3
MEAN_MOTION_DDOT = 0

CCSDS_OMM_VERS = 2.0
CREATION_DATE  = 
ORIGINATOR     = 

OBJECT_NAME    = COSMOS 1536
OBJECT_ID      = 1984-013A
CENTER_NAME    = EARTH
REF_FRAME      = TEME
TIME_SYSTEM    = UTC
MEAN_ELEMENT_THEORY = SGP/SGP4

EPOCH          = 2025-12-30T13:12:25.207200
MEAN_MOTION    = 15.22752605
ECCENTRICITY   = .00149413
INCLINATION    = 82.5446
RA_OF_ASC_NODE = 176.4980
ARG_OF_PERICENTER = 161.3947
MEAN_ANOMALY   = 198.7839

EPHEMERIS_TYPE = 0
CLASSIFICATION_TYPE = U
NORAD_CAT_ID   = 14699
ELEMENT_SET_NO = 999
REV_AT_EPOCH   = 26209
BSTAR          = .463864E-3
MEAN_MOTION_DOT = .10894E-3
MEAN_MOTION_DDOT = 0

CCSDS_OMM_VERS = 2.0
CREATION_DATE  = 
ORIGINATOR     = 

OBJECT_NAME    = SL-14 R/B
OBJECT_ID      = 1984-027B
CENTER_NAME    = EARTH
REF_FRAME      = TEME
TIME_SYSTEM    = UTC
MEAN_ELEMENT_THEORY = SGP/SGP4

EPOCH          = 2025-12-30T08:00:36.292032
MEAN_MOTION    = 14.85895615
ECCENTRICITY   = .00173484
INCLINATION    = 82.5428
RA_OF_ASC_NODE = 310.0572
ARG_OF_PERICENTER = 198.4357
MEAN_ANOMALY   = 161.6233

EPHEMERIS_TYPE = 0
CLASSIFICATION_TYPE = U
NORAD_CAT_ID   = 14820
ELEMENT_SET_NO = 999
REV_AT_EPOCH   = 23733
BSTAR          = .96315187E-4
MEAN_MOTION_DOT = .865E-5
MEAN_MOTION_DDOT = 0

CCSDS_OMM_VERS = 2.0
CREATION_DATE  = 
ORIGINATOR     = 

OBJECT_NAME    = SL-8 R/B
OBJECT_ID      = 1985-006B
CENTER_NAME    = EARTH
REF_FRAME      = TEME
TIME_SYSTEM    = UTC
MEAN_ELEMENT_THEORY = SGP/SGP4

EPOCH          = 2025-12-30T13:48:29.183328
MEAN_MOTION    = 14.37733729
ECCENTRICITY   = .00194265
INCLINATION    = 74.0458
RA_OF_ASC_NODE = 28.3190
ARG_OF_PERICENTER = 317.0995
MEAN_ANOMALY   = 160.5103

EPHEMERIS_TYPE = 0
CLASSIFICATION_TYPE = U
NORAD_CAT_ID   = 15483
ELEMENT_SET_NO = 999
REV_AT_EPOCH   = 14409
BSTAR          = .17405021E-3
MEAN_MOTION_DOT = .498E-5
MEAN_MOTION_DDOT = 0

CCSDS_OMM_VERS = 2.0
CREATION_DATE  = 
ORIGINATOR     = 

OBJECT_NAME    = SL-12 R/B(2)
OBJECT_ID      = 1985-042D
CENTER_NAME    = EARTH
REF_FRAME      = TEME
TIME_SYSTEM    = UTC
MEAN_ELEMENT_THEORY = SGP/SGP4

EPOCH          = 2025-12-30T14:32:40.147008
MEAN_MOTION    = 14.21957443
ECCENTRICITY   = .00371097
INCLINATION    = 71.1066
RA_OF_ASC_NODE = 233.6768
ARG_OF_PERICENTER = 235.2286
MEAN_ANOMALY   = 144.5893

EPHEMERIS_TYPE = 0
CLASSIFICATION_TYPE = U
NORAD_CAT_ID   = 15772
ELEMENT_SET_NO = 999
REV_AT_EPOCH   = 10457
BSTAR          = .1099742E-3
MEAN_MOTION_DOT = .197E-5
MEAN_MOTION_DDOT = 0

CCSDS_OMM_VERS = 2.0
CREATION_DATE  = 
ORIGINATOR     = 

OBJECT_NAME    = SL-14 R/B
OBJECT_ID      = 1985-069B
CENTER_NAME    = EARTH
REF_FRAME      = TEME
TIME_SYSTEM    = UTC
MEAN_ELEMENT_THEORY = SGP/SGP4

EPOCH          = 2025-12-30T14:36:51.962400
MEAN_MOTION    = 14.86346971
ECCENTRICITY   = .00201337
INCLINATION    = 82.5273
RA_OF_ASC_NODE = 89.9047
ARG_OF_PERICENTER = 63.4842
MEAN_ANOMALY   = 296.8436

EPHEMERIS_TYPE = 0
CLASSIFICATION_TYPE = U
NORAD_CAT_ID   = 15945
ELEMENT_SET_NO = 999
REV_AT_EPOCH   = 16257
BSTAR          = .91459882E-4
MEAN_MOTION_DOT = .833E-5
MEAN_MOTION_DDOT = 0

CCSDS_OMM_VERS = 2.0
CREATION_DATE  = 
ORIGINATOR     = 

OBJECT_NAME    = SL-16 R/B
OBJECT_ID      = 1985-097B
CENTER_NAME    = EARTH
REF_FRAME      = TEME
TIME_SYSTEM    = UTC
MEAN_ELEMENT_THEORY = SGP/SGP4

EPOCH          = 2025-12-30T12:36:30.133728
MEAN_MOTION    = 14.16586612
ECCENTRICITY   = .00077647
INCLINATION    = 71.0030
RA_OF_ASC_NODE = 286.1601
ARG_OF_PERICENTER = 344.0158
MEAN_ANOMALY   = 188.7522

EPHEMERIS_TYPE = 0
CLASSIFICATION_TYPE = U
NORAD_CAT_ID   = 16182
ELEMENT_SET_NO = 999
REV_AT_EPOCH   = 7743
BSTAR          = -.11474001E-4
MEAN_MOTION_DOT = -.71E-6
MEAN_MOTION_DDOT = 0

CCSDS_OMM_VERS = 2.0
CREATION_DATE  = 
ORIGINATOR     = 

OBJECT_NAME    = SL-14 R/B
OBJECT_ID      = 1986-006B
CENTER_NAME    = EARTH
REF_FRAME      = TEME
TIME_SYSTEM    = UTC
MEAN_ELEMENT_THEORY = SGP/SGP4

EPOCH          = 2025-12-30T08:01:09.792768
MEAN_MOTION    = 14.86696429
ECCENTRICITY   = .00776726
INCLINATION    = 82.5278
RA_OF_ASC_NODE = 324.9960
ARG_OF_PERICENTER = 141.6441
MEAN_ANOMALY   = 219.0336

EPHEMERIS_TYPE = 0
CLASSIFICATION_TYPE = U
NORAD_CAT_ID   = 16496
ELEMENT_SET_NO = 999
REV_AT_EPOCH   = 13890
BSTAR          = .10577998E-3
MEAN_MOTION_DOT = .1021E-4
MEAN_MOTION_DDOT = 0

CCSDS_OMM_VERS = 2.0
CREATION_DATE  = 
ORIGINATOR     = 

OBJECT_NAME    = COSMOS 1743
OBJECT_ID      = 1986-034A
CENTER_NAME    = EARTH
REF_FRAME      = TEME
TIME_SYSTEM    = UTC
MEAN_ELEMENT_THEORY = SGP/SGP4

EPOCH          = 2025-12-30T10:36:37.493568
MEAN_MOTION    = 15.53277766
ECCENTRICITY   = .00051564
INCLINATION    = 82.5346
RA_OF_ASC_NODE = 146.1908
ARG_OF_PERICENTER = 181.5658
MEAN_ANOMALY   = 178.5580

EPHEMERIS_TYPE = 0
CLASSIFICATION_TYPE = U
NORAD_CAT_ID   = 16719
ELEMENT_SET_NO = 999
REV_AT_EPOCH   = 16948
BSTAR          = .68482633E-3
MEAN_MOTION_DOT = .43334E-3
MEAN_MOTION_DDOT = 0

