SL-3 R/B                
1 13403U 82079B   25364.60893667  .00008942  00000+0  36640-3 0  9996
2 13403  81.1475 274.5954 0026543  41.5827 318.7418 15.23822696367172
SL-14 R/B               
1 13553U 82092B   25364.65310826  .00000802  00000+0  87455-4 0  9991
2 13553  82.5668 205.9584 0020637 166.1915 257.9015 14.86574879318677
SL-3 R/B                
1 13819U 83010B   25364.59748999  .00021688  00000+0  47242-3 0  9990
2 13819  81.1046  86.8136 0016315 287.2784  72.6674 15.43995053347279
SL-3 R/B                
1 14208U 83075B   25364.56856942  .00015793  00000+0  44061-3 0  9995
2 14208  97.6108   1.6557 0024368 114.5856 245.7931 15.36533186319538
COSMOS 1536             
1 14699U 84013A   25364.55029175  .00010894  00000+0  46386-3 0  9990
2 14699  82.5446 176.4980 0014941 161.3947 198.7839 15.22752605262094
SL-14 R/B               
1 14820U 84027B   25364.33375338  .00000865  00000+0  96315-4 0  9997
2 14820  82.5428 310.0572 0017348 198.4357 161.6233 14.85895615237336
SL-8 R/B                
1 15483U 85006B   25364.57533777  .00000498  00000+0  17405-3 0  9994
2 15483  74.0458  28.3190 0019426 317.0995 160.5103 14.37733729144090
SL-12 R/B(2)            
1 15772U 85042D   25364.60602022  .00000197  00000+0  10997-3 0  9994
2 15772  71.1066 233.6768 0037109 235.2286 144.5893 14.21957443104579
SL-14 R/B               
1 15945U 85069B   25364.60893475  .00000833  00000+0  91460-4 0  9991
2 15945  82.5273  89.9047 0020133  63.4842 296.8436 14.86346971162574
SL-16 R/B               
1 16182U 85097B   25364.52534877 -.00000071  00000+0 -11474-4 0  9998
2 16182  71.0030 286.1601 0007764 344.0158 188.7522 14.16586612 77438
SL-14 R/B               
1 16496U 86006B   25364.33414112  .00001021  00000+0  10578-3 0  9992
2 16496  82.5278 324.9960 0077672 141.6441 219.0336 14.86696429138903
COSMOS 1743             
1 16719U 86034A   25364.44210062  .00043334  00000+0  68483-3 0  9992
2 16719  82.5346 146.1908 0005156 181.5658 178.5580 15.53277766169485
